{
"type": "FeatureCollection",
"name": "bairros",
"crs": { "type": "name", "properties": { "name": "urn:ogc:def:crs:EPSG::4674" } },
"features": [
{ "type": "Feature", "properties": { "id": 1, "Nome": "Vila Claudia", "area": 16.4 }, "geometry": { "type": "MultiPolygon", "coordinates": [ [ [ [ -47.743114683782984, -21.33942124177176 ], [ -47.739199476134949, -21.34075241237209 ], [ -47.740045160986924, -21.343023232807951 ], [ -47.740154786801071, -21.343367771080977 ], [ -47.740718576702392, -21.343508718556308 ], [ -47.741736530690879, -21.34360268353986 ], [ -47.742676180526409, -21.34346173606453 ], [ -47.743333935411279, -21.343195501944464 ], [ -47.744320567738583, -21.342741337857291 ], [ -47.743114683782984, -21.33942124177176 ] ] ] ] } },
{ "type": "Feature", "properties": { "id": 2, "Nome": "Joao Berbel", "area": 33.7 }, "geometry": { "type": "MultiPolygon", "coordinates": [ [ [ [ -47.743114683782984, -21.33942124177176 ], [ -47.744320567738583, -21.342741337857291 ], [ -47.746716674819162, -21.34155111473229 ], [ -47.750569239144831, -21.339671815061234 ], [ -47.752808737919509, -21.338575556919785 ], [ -47.75359177944911, -21.338043088679651 ], [ -47.752636468782995, -21.336148128178003 ], [ -47.743114683782984, -21.33942124177176 ] ] ] ] } },
{ "type": "Feature", "properties": { "id": 3, "Nome": "Condominio Acacias Village", "area": 8.2 }, "geometry": { "type": "MultiPolygon", "coordinates": [ [ [ [ -47.738314639206472, -21.332397359251189 ], [ -47.739841570189213, -21.331849230180463 ], [ -47.739970772041595, -21.331825738934572 ], [ -47.740906506669475, -21.331308931525033 ], [ -47.74069508545648, -21.330987884497894 ], [ -47.74020959970813, -21.331171899257352 ], [ -47.7400686522328, -21.33084693702256 ], [ -47.739966856833952, -21.330768632869603 ], [ -47.739849400604506, -21.330756887246658 ], [ -47.739767181243899, -21.330561126864257 ], [ -47.739716283544475, -21.330071725908251 ], [ -47.739704537921533, -21.329887711148796 ], [ -47.73964189459916, -21.329770254919353 ], [ -47.73990029830393, -21.32968020514345 ], [ -47.739313017156725, -21.328728809684979 ], [ -47.738721820801878, -21.32894414610562 ], [ -47.738757057670711, -21.329034195881523 ], [ -47.737155737742654, -21.329586240159902 ], [ -47.738314639206472, -21.332397359251189 ] ] ] ] } },
{ "type": "Feature", "properties": { "id": 4, "Nome": "Condominio Ana Carolina", "area": 16.1 }, "geometry": { "type": "MultiPolygon", "coordinates": [ [ [ [ -47.740859524177665, -21.31833393337946 ], [ -47.742832788832274, -21.319704256056269 ], [ -47.745487299617636, -21.31412900036548 ], [ -47.743302613750032, -21.313220672191136 ], [ -47.740859524177665, -21.31833393337946 ] ] ] ] } },
{ "type": "Feature", "properties": { "id": 5, "Nome": "Jardim Santana", "area": 19.6 }, "geometry": { "type": "MultiPolygon", "coordinates": [ [ [ [ -47.759326435971801, -21.324241885624211 ], [ -47.756670864738318, -21.327461139430842 ], [ -47.755318026562769, -21.329239871106097 ], [ -47.754892133063059, -21.329678290885212 ], [ -47.755318026562769, -21.330116710664324 ], [ -47.755593604709638, -21.330542604164034 ], [ -47.761192851602878, -21.328225242474439 ], [ -47.759326435971801, -21.324241885624211 ] ] ] ] } },
{ "type": "Feature", "properties": { "id": null, "Nome": "Itamarati", "area": 24.0 }, "geometry": { "type": "MultiPolygon", "coordinates": [ [ [ [ -47.750876583902858, -21.336753088605551 ], [ -47.750626934926267, -21.336116798498463 ], [ -47.749725042809231, -21.333899647044092 ], [ -47.749424412103558, -21.333160596559299 ], [ -47.748121679045617, -21.334150172632157 ], [ -47.746956735061119, -21.334901749396348 ], [ -47.745491160370939, -21.335715957557561 ], [ -47.744702004768541, -21.336555218277578 ], [ -47.743762533813296, -21.33688090154206 ], [ -47.74321137751955, -21.336893427821465 ], [ -47.743724954975086, -21.338409107629253 ], [ -47.744062637986922, -21.339095382514156 ], [ -47.750876583902858, -21.336753088605551 ] ] ] ] } },
{ "type": "Feature", "properties": { "id": null, "Nome": "Parque Sao Jose _ Serra Pelada", "area": 12.9 }, "geometry": { "type": "MultiPolygon", "coordinates": [ [ [ [ -47.732269041121178, -21.348196235182552 ], [ -47.731205536200726, -21.347757676452471 ], [ -47.730920473026167, -21.347691892642956 ], [ -47.727488750963261, -21.350520596451997 ], [ -47.728552255883713, -21.351233254388383 ], [ -47.729944679851734, -21.35268049819766 ], [ -47.731260356041986, -21.350750839785292 ], [ -47.732269041121178, -21.348196235182552 ] ] ] ] } },
{ "type": "Feature", "properties": { "id": null, "Nome": "Jardim Itapua", "area": 18.1 }, "geometry": { "type": "MultiPolygon", "coordinates": [ [ [ [ -47.744062637986922, -21.339095382514156 ], [ -47.743724954975086, -21.338409107629253 ], [ -47.74321137751955, -21.336893427821465 ], [ -47.741763837627467, -21.33701298756543 ], [ -47.739614899850061, -21.33706780740669 ], [ -47.737334394453619, -21.337922996930352 ], [ -47.738496575088348, -21.338854934231783 ], [ -47.739199476134949, -21.34075241237209 ], [ -47.744062637986922, -21.339095382514156 ] ] ] ] } },
{ "type": "Feature", "properties": { "id": null, "Nome": "Francisco Castilho", "area": 15.6 }, "geometry": { "type": "MultiPolygon", "coordinates": [ [ [ [ -47.755578437625125, -21.335138148994321 ], [ -47.758891551113066, -21.33394532176278 ], [ -47.757013029018381, -21.330010640875596 ], [ -47.755593604709638, -21.330542604164034 ], [ -47.753933842387312, -21.331180156455314 ], [ -47.755578437625125, -21.335138148994321 ] ] ] ] } },
{ "type": "Feature", "properties": { "id": null, "Nome": "Nova Cravinhos", "area": 26.5 }, "geometry": { "type": "MultiPolygon", "coordinates": [ [ [ [ -47.750876583902858, -21.336753088605551 ], [ -47.752636468782995, -21.336148128178003 ], [ -47.755578437625125, -21.335138148994321 ], [ -47.753933842387312, -21.331180156455314 ], [ -47.753473355720722, -21.330346894868153 ], [ -47.752947085244621, -21.330566174233198 ], [ -47.751982256038438, -21.331180156455314 ], [ -47.751236706197297, -21.331706426931412 ], [ -47.749424412103558, -21.333160596559299 ], [ -47.750876583902858, -21.336753088605551 ] ] ] ] } },
{ "type": "Feature", "properties": { "id": null, "Nome": "Condominio Alto da Boa Vista", "area": 23.5 }, "geometry": { "type": "MultiPolygon", "coordinates": [ [ [ [ -47.719550837948766, -21.331991490105967 ], [ -47.716206827631879, -21.329875444233313 ], [ -47.71576826890179, -21.329875444233313 ], [ -47.715132358743169, -21.330039903757093 ], [ -47.714978863187639, -21.330292075026893 ], [ -47.714803439695608, -21.330862201376 ], [ -47.714759583822598, -21.331147264550555 ], [ -47.714660908108328, -21.331289796137831 ], [ -47.714233313346497, -21.331487147566371 ], [ -47.712862817314992, -21.332013418042472 ], [ -47.713290412076823, -21.332331373121782 ], [ -47.713312340013324, -21.332671256137598 ], [ -47.713652223029136, -21.332989211216905 ], [ -47.713465835568854, -21.333197526613695 ], [ -47.714189457473495, -21.333723797089796 ], [ -47.715954656362079, -21.334578986613458 ], [ -47.717939134615705, -21.335236824708584 ], [ -47.719430234297988, -21.332265589312268 ], [ -47.719550837948766, -21.331991490105967 ] ] ] ] } },
{ "type": "Feature", "properties": { "id": null, "Nome": "Jardim Santa Cruz", "area": 12.7 }, "geometry": { "type": "MultiPolygon", "coordinates": [ [ [ [ -47.753813238736527, -21.338449267406446 ], [ -47.750321406437266, -21.340176228081322 ], [ -47.751751408367873, -21.342732732775243 ], [ -47.754876743656979, -21.341267007247232 ], [ -47.754394329053888, -21.339644339945924 ], [ -47.753813238736527, -21.338449267406446 ] ] ] ] } },
{ "type": "Feature", "properties": { "id": null, "Nome": "Jardim Alvorada", "area": 48.6 }, "geometry": { "type": "MultiPolygon", "coordinates": [ [ [ [ -47.727488750963261, -21.350520596451997 ], [ -47.724865621558955, -21.348922598079252 ], [ -47.724459954733625, -21.349394048714089 ], [ -47.724536702511386, -21.351301779189956 ], [ -47.724531220527268, -21.352683239189719 ], [ -47.724421580844748, -21.353856383792696 ], [ -47.724213265447958, -21.354963744586158 ], [ -47.723884346400396, -21.356082069347874 ], [ -47.723445787670308, -21.357299069823856 ], [ -47.722853733384682, -21.358483178395087 ], [ -47.722239751162562, -21.359513791410784 ], [ -47.72220685925781, -21.359853674426599 ], [ -47.722305534972079, -21.360083917759894 ], [ -47.72262349005139, -21.360237413315424 ], [ -47.722974337035453, -21.36027030522018 ], [ -47.723511571479811, -21.360259341251929 ], [ -47.724224229416194, -21.360105845696399 ], [ -47.724761463860546, -21.359864638394853 ], [ -47.725408337987425, -21.359404151728263 ], [ -47.726285455447595, -21.358559926172852 ], [ -47.727052933225238, -21.357529313157155 ], [ -47.728324753542481, -21.355555798871773 ], [ -47.729103195288381, -21.354393618237051 ], [ -47.729944679851734, -21.35268049819766 ], [ -47.728552255883713, -21.351233254388383 ], [ -47.727488750963261, -21.350520596451997 ] ] ] ] } },
{ "type": "Feature", "properties": { "id": null, "Nome": "Jardim Botanico", "area": 12.3 }, "geometry": { "type": "MultiPolygon", "coordinates": [ [ [ [ -47.750321406437266, -21.340176228081322 ], [ -47.747046194339887, -21.341747450483759 ], [ -47.748480925670485, -21.344356573035416 ], [ -47.751751408367873, -21.342732732775247 ], [ -47.750321406437266, -21.340176228081322 ] ] ] ] } },
{ "type": "Feature", "properties": { "id": null, "Nome": "Trajano Stella", "area": null }, "geometry": { "type": "MultiPolygon", "coordinates": [ [ [ [ -47.757013029018381, -21.330010640875596 ], [ -47.758891551113066, -21.33394532176278 ], [ -47.761340201363303, -21.333085579679512 ], [ -47.759450067499579, -21.329024177753244 ], [ -47.757013029018381, -21.330010640875596 ] ] ] ] } },
{ "type": "Feature", "properties": { "id": null, "Nome": "Jardim Julia", "area": null }, "geometry": { "type": "MultiPolygon", "coordinates": [ [ [ [ -47.756582425341257, -21.334776689796541 ], [ -47.757273022582162, -21.336465826478218 ], [ -47.766108654202363, -21.332273615773037 ], [ -47.765833923548072, -21.331443462435537 ], [ -47.756582425341257, -21.334776689796541 ] ] ] ] } },
{ "type": "Feature", "properties": { "id": null, "Nome": "Santana do Alto", "area": null }, "geometry": { "type": "MultiPolygon", "coordinates": [ [ [ [ -47.765825961952821, -21.326412764514291 ], [ -47.769453434331325, -21.325229990260926 ], [ -47.769554192333565, -21.325420557790363 ], [ -47.772065453382453, -21.324600113953498 ], [ -47.771135287075467, -21.32221766352702 ], [ -47.770910095003046, -21.321725630505775 ], [ -47.770245034992428, -21.321959176043556 ], [ -47.76978934268385, -21.32069190999534 ], [ -47.765116279872508, -21.32253939831995 ], [ -47.765969261772405, -21.324265536616757 ], [ -47.76498262304063, -21.324625764251934 ], [ -47.765825961952821, -21.326412764514291 ] ] ] ] } },
{ "type": "Feature", "properties": { "id": null, "Nome": "Jardim Alianca", "area": null }, "geometry": { "type": "MultiPolygon", "coordinates": [ [ [ [ -47.765116279872508, -21.32253939831995 ], [ -47.764151238090641, -21.322899264843823 ], [ -47.763662833260661, -21.321900624850198 ], [ -47.762780168507817, -21.322335008536268 ], [ -47.760560127987112, -21.323717101449077 ], [ -47.759415219696677, -21.324431376505519 ], [ -47.761192851602878, -21.328225242474439 ], [ -47.759450067499579, -21.329024177753244 ], [ -47.761340201363303, -21.333085579679512 ], [ -47.764892916815612, -21.331782527333971 ], [ -47.764439706429577, -21.330801200025423 ], [ -47.76491107808333, -21.330601213255107 ], [ -47.764099155864116, -21.328763106766704 ], [ -47.765481055402759, -21.328173794870377 ], [ -47.764860803405995, -21.326767580439125 ], [ -47.765825961952821, -21.326412764514291 ], [ -47.76498262304063, -21.324625764251934 ], [ -47.765969261772405, -21.324265536616757 ], [ -47.765116279872508, -21.32253939831995 ] ] ] ] } },
{ "type": "Feature", "properties": { "id": null, "Nome": "Bela Cravinhos I", "area": null }, "geometry": { "type": "MultiPolygon", "coordinates": [ [ [ [ -47.752624476028117, -21.328961631006948 ], [ -47.753761773001429, -21.327991958619265 ], [ -47.754690555444078, -21.326843586041285 ], [ -47.755668384039602, -21.325431353474002 ], [ -47.756179931437337, -21.324492164894671 ], [ -47.756348507989181, -21.323690127517693 ], [ -47.756518217135323, -21.322948775705054 ], [ -47.756919898026887, -21.322486904343208 ], [ -47.758225461402915, -21.321858437704972 ], [ -47.759587821561098, -21.321380789415553 ], [ -47.758999271846548, -21.320510243798509 ], [ -47.758304679004432, -21.319742609548161 ], [ -47.757462189610642, -21.319149393636415 ], [ -47.754924691118497, -21.317987041286116 ], [ -47.75105758321731, -21.325425973565736 ], [ -47.751126501000421, -21.3256474278887 ], [ -47.752624476028117, -21.328961631006948 ] ] ] ] } },
{ "type": "Feature", "properties": { "id": null, "Nome": "Bela Cravinhos II", "area": null }, "geometry": { "type": "MultiPolygon", "coordinates": [ [ [ [ -47.76017283229406, -21.313980457730555 ], [ -47.75761969343899, -21.312843689693448 ], [ -47.75635246568568, -21.315231939909715 ], [ -47.754924691118497, -21.317987041286116 ], [ -47.757462189610642, -21.319149393636415 ], [ -47.76017283229406, -21.313980457730555 ] ] ] ] } },
{ "type": "Feature", "properties": { "id": null, "Nome": "Parque Ecologico", "area": null }, "geometry": { "type": "MultiPolygon", "coordinates": [ [ [ [ -47.74198292541265, -21.336804684680065 ], [ -47.741901410027545, -21.33590556277618 ], [ -47.740343666335242, -21.335758989839821 ], [ -47.739385563062669, -21.334176060440143 ], [ -47.737267233576098, -21.335242578651201 ], [ -47.736846493090063, -21.335846366415772 ], [ -47.737129992880256, -21.335993508590608 ], [ -47.738289446874099, -21.337370819486264 ], [ -47.739652216819792, -21.336903425843545 ], [ -47.74198292541265, -21.336804684680065 ] ] ] ] } },
{ "type": "Feature", "properties": { "id": null, "Nome": "Terras de Cravinhos", "area": null }, "geometry": { "type": "MultiPolygon", "coordinates": [ [ [ [ -47.758531444955771, -21.317110468681459 ], [ -47.757462189610642, -21.319149393636415 ], [ -47.758304679004432, -21.319742609548161 ], [ -47.758999271846548, -21.320510243798509 ], [ -47.759367043669528, -21.321054230293839 ], [ -47.760878599513582, -21.319963394076101 ], [ -47.760072864649118, -21.31787222089951 ], [ -47.758531444955771, -21.317110468681459 ] ] ] ] } },
{ "type": "Feature", "properties": { "id": null, "Nome": "Jardim Santa Cruz II", "area": null }, "geometry": { "type": "MultiPolygon", "coordinates": [ [ [ [ -47.754876743656979, -21.341267007247232 ], [ -47.749429832983822, -21.34388543709818 ], [ -47.749867038204926, -21.344961923377557 ], [ -47.749399937774925, -21.345394503657904 ], [ -47.750682048902775, -21.348125430626105 ], [ -47.751537061858514, -21.347646019361243 ], [ -47.756168861363712, -21.345850089805875 ], [ -47.754876743656979, -21.341267007247232 ] ] ] ] } }
]
}
